[
    {
        "Altitude(m)": 709000.1075469392,
        "Argument of Periapsis(deg)": 0.0,
        "Eccentricity": 0.0,
        "Inclination(deg)": 45.0,
        "Latitude(deg)": -22.63878101659586,
        "Longitude(deg)": -50.46173121041039,
        "Mean Anomaly(deg)": -147.27269999999996,
        "RAAN(deg)": 205.0,
        "Satellite Name": "Constellation 1 915",
        "Satellite Number": 915,
        "Semi-Major Axis(m)": 7083131.272910544,
        "Time(s)": 0
    },
    {
        "Altitude(m)": 709013.6621113667,
        "Argument of Periapsis(deg)": 5.994800624540561e-05,
        "Eccentricity": 0.0,
        "Inclination(deg)": 45.0,
        "Latitude(deg)": -22.677990556522136,
        "Longitude(deg)": -50.415625755911044,
        "Mean Anomaly(deg)": -147.2119988597501,
        "RAAN(deg)": 204.99994341083445,
        "Satellite Name": "Constellation 1 915",
        "Satellite Number": 915,
        "Semi-Major Axis(m)": 7083131.272910544,
        "Time(s)": 1
    },
    {
        "Altitude(m)": 709027.2218483422,
        "Argument of Periapsis(deg)": 0.00011989601249081122,
        "Eccentricity": 0.0,
        "Inclination(deg)": 45.0,
        "Latitude(deg)": -22.717184062780795,
        "Longitude(deg)": -50.36949188160206,
        "Mean Anomaly(deg)": -147.1512977195002,
        "RAAN(deg)": 204.99988682166884,
        "Satellite Name": "Constellation 1 915",
        "Satellite Number": 915,
        "Semi-Major Axis(m)": 7083131.272910544,
        "Time(s)": 2
    },
    {
        "Altitude(m)": 709040.7867126577,
        "Argument of Periapsis(deg)": 0.00017984401873621686,
        "Eccentricity": 0.0,
        "Inclination(deg)": 45.0,
        "Latitude(deg)": -22.75636149622741,
        "Longitude(deg)": -50.32332952807735,
        "Mean Anomaly(deg)": -147.09059657925027,
        "RAAN(deg)": 204.99983023250329,
        "Satellite Name": "Constellation 1 915",
        "Satellite Number": 915,
        "Semi-Major Axis(m)": 7083131.272910544,
        "Time(s)": 3
    },
    {
        "Altitude(m)": 709054.3566590644,
        "Argument of Periapsis(deg)": 0.00023979202498162244,
        "Eccentricity": 0.0,
        "Inclination(deg)": 45.0,
        "Latitude(deg)": -22.79552281766191,
        "Longitude(deg)": -50.277138635912216,
        "Mean Anomaly(deg)": -147.02989543900043,
        "RAAN(deg)": 204.9997736433377,
        "Satellite Name": "Constellation 1 915",
        "Satellite Number": 915,
        "Semi-Major Axis(m)": 7083131.272910544,
        "Time(s)": 4
    },
    {
        "Altitude(m)": 709067.9316422835,
        "Argument of Periapsis(deg)": 0.00029974003122702807,
        "Eccentricity": 0.0,
        "Inclination(deg)": 45.0,
        "Latitude(deg)": -22.834667987828656,
        "Longitude(deg)": -50.230919145663215,
        "Mean Anomaly(deg)": -146.9691942987505,
        "RAAN(deg)": 204.99971705417215,
        "Satellite Name": "Constellation 1 915",
        "Satellite Number": 915,
        "Semi-Major Axis(m)": 7083131.272910544,
        "Time(s)": 5
    },
    {
        "Altitude(m)": 709081.5116169968,
        "Argument of Periapsis(deg)": 0.00035968803747243373,
        "Eccentricity": 0.0,
        "Inclination(deg)": 45.0,
        "Latitude(deg)": -22.87379696741618,
        "Longitude(deg)": -50.18467099786867,
        "Mean Anomaly(deg)": -146.90849315850062,
        "RAAN(deg)": 204.9996604650066,
        "Satellite Name": "Constellation 1 915",
        "Satellite Number": 915,
        "Semi-Major Axis(m)": 7083131.272910544,
        "Time(s)": 6
    },
    {
        "Altitude(m)": 709095.0965378634,
        "Argument of Periapsis(deg)": 0.00041963604371783933,
        "Eccentricity": 0.0,
        "Inclination(deg)": 45.0,
        "Latitude(deg)": -22.912909717057303,
        "Longitude(deg)": -50.13839430114588,
        "Mean Anomaly(deg)": -146.84779201825074,
        "RAAN(deg)": 204.999603875841,
        "Satellite Name": "Constellation 1 915",
        "Satellite Number": 915,
        "Semi-Major Axis(m)": 7083131.272910544,
        "Time(s)": 7
    },
    {
        "Altitude(m)": 709108.6863594996,
        "Argument of Periapsis(deg)": 0.0004795840499632449,
        "Eccentricity": 0.0,
        "Inclination(deg)": 45.0,
        "Latitude(deg)": -22.95200619732845,
        "Longitude(deg)": -50.0920886598024,
        "Mean Anomaly(deg)": -146.7870908780008,
        "RAAN(deg)": 204.99954728667544,
        "Satellite Name": "Constellation 1 915",
        "Satellite Number": 915,
        "Semi-Major Axis(m)": 7083131.272910544,
        "Time(s)": 8
    },
    {
        "Altitude(m)": 709122.2810365038,
        "Argument of Periapsis(deg)": 0.0005395320562086505,
        "Eccentricity": 0.0,
        "Inclination(deg)": 45.0,
        "Latitude(deg)": -22.991086368750203,
        "Longitude(deg)": -50.045754182419934,
        "Mean Anomaly(deg)": -146.72638973775094,
        "RAAN(deg)": 204.99949069750988,
        "Satellite Name": "Constellation 1 915",
        "Satellite Number": 915,
        "Semi-Major Axis(m)": 7083131.272910544,
        "Time(s)": 9
    },
    {
        "Altitude(m)": 709135.8805234266,
        "Argument of Periapsis(deg)": 0.0005994800624540561,
        "Eccentricity": 0.0,
        "Inclination(deg)": 45.0,
        "Latitude(deg)": -23.030150191787047,
        "Longitude(deg)": -49.999390809464934,
        "Mean Anomaly(deg)": -146.66568859750103,
        "RAAN(deg)": 204.9994341083443,
        "Satellite Name": "Constellation 1 915",
        "Satellite Number": 915,
        "Semi-Major Axis(m)": 7083131.272910544,
        "Time(s)": 10
    },
    {
        "Altitude(m)": 709149.4847747966,
        "Argument of Periapsis(deg)": 0.0006594280686994618,
        "Eccentricity": 0.0,
        "Inclination(deg)": 45.0,
        "Latitude(deg)": -23.069197626846986,
        "Longitude(deg)": -49.952998481386494,
        "Mean Anomaly(deg)": -146.6049874572511,
        "RAAN(deg)": 204.99937751917875,
        "Satellite Name": "Constellation 1 915",
        "Satellite Number": 915,
        "Semi-Major Axis(m)": 7083131.272910544,
        "Time(s)": 11
    },
    {
        "Altitude(m)": 709163.0937451071,
        "Argument of Periapsis(deg)": 0.0007193760749448675,
        "Eccentricity": 0.0,
        "Inclination(deg)": 45.0,
        "Latitude(deg)": -23.10822863428153,
        "Longitude(deg)": -49.90657713861669,
        "Mean Anomaly(deg)": -146.54428631700125,
        "RAAN(deg)": 204.99932093001314,
        "Satellite Name": "Constellation 1 915",
        "Satellite Number": 915,
        "Semi-Major Axis(m)": 7083131.272910544,
        "Time(s)": 12
    },
    {
        "Altitude(m)": 709176.7073888249,
        "Argument of Periapsis(deg)": 0.000779324081190273,
        "Eccentricity": 0.0,
        "Inclination(deg)": 45.0,
        "Latitude(deg)": -23.14724317438586,
        "Longitude(deg)": -49.86012672157016,
        "Mean Anomaly(deg)": -146.4835851767513,
        "RAAN(deg)": 204.9992643408476,
        "Satellite Name": "Constellation 1 915",
        "Satellite Number": 915,
        "Semi-Major Axis(m)": 7083131.272910544,
        "Time(s)": 13
    },
    {
        "Altitude(m)": 709190.3256603817,
        "Argument of Periapsis(deg)": 0.0008392720874356787,
        "Eccentricity": 0.0,
        "Inclination(deg)": 45.0,
        "Latitude(deg)": -23.18624120739819,
        "Longitude(deg)": -49.813647170645055,
        "Mean Anomaly(deg)": -146.42288403650144,
        "RAAN(deg)": 204.99920775168204,
        "Satellite Name": "Constellation 1 915",
        "Satellite Number": 915,
        "Semi-Major Axis(m)": 7083131.272910544,
        "Time(s)": 14
    },
    {
        "Altitude(m)": 709203.9485141732,
        "Argument of Periapsis(deg)": 0.0008992200936810842,
        "Eccentricity": 0.0,
        "Inclination(deg)": 45.0,
        "Latitude(deg)": -23.225222693500438,
        "Longitude(deg)": -49.7671385943197,
        "Mean Anomaly(deg)": -146.3621828962515,
        "RAAN(deg)": 204.99915116251645,
        "Satellite Name": "Constellation 1 915",
        "Satellite Number": 915,
        "Semi-Major Axis(m)": 7083131.272910544,
        "Time(s)": 15
    },
    {
        "Altitude(m)": 709217.5759045747,
        "Argument of Periapsis(deg)": 0.0009591680999264898,
        "Eccentricity": 0.0,
        "Inclination(deg)": 45.0,
        "Latitude(deg)": -23.264187592817006,
        "Longitude(deg)": -49.72060059676445,
        "Mean Anomaly(deg)": -146.3014817560016,
        "RAAN(deg)": 204.9990945733509,
        "Satellite Name": "Constellation 1 915",
        "Satellite Number": 915,
        "Semi-Major Axis(m)": 7083131.272910544,
        "Time(s)": 16
    },
    {
        "Altitude(m)": 709231.2077859251,
        "Argument of Periapsis(deg)": 0.0010191161061718953,
        "Eccentricity": 0.0,
        "Inclination(deg)": 45.0,
        "Latitude(deg)": -23.303135865415726,
        "Longitude(deg)": -49.67403328642521,
        "Mean Anomaly(deg)": -146.2407806157517,
        "RAAN(deg)": 204.99903798418535,
        "Satellite Name": "Constellation 1 915",
        "Satellite Number": 915,
        "Semi-Major Axis(m)": 7083131.272910544,
        "Time(s)": 17
    },
    {
        "Altitude(m)": 709244.8441125321,
        "Argument of Periapsis(deg)": 0.001079064112417301,
        "Eccentricity": 0.0,
        "Inclination(deg)": 45.0,
        "Latitude(deg)": -23.34206747130736,
        "Longitude(deg)": -49.6274366036342,
        "Mean Anomaly(deg)": -146.18007947550177,
        "RAAN(deg)": 204.99898139501974,
        "Satellite Name": "Constellation 1 915",
        "Satellite Number": 915,
        "Semi-Major Axis(m)": 7083131.272910544,
        "Time(s)": 18
    }
]